{"fetched_at":"2026-07-20T18:29:26.415Z","source":"https://celestrak.org/NORAD/elements/gp.php?NAME=HULIANWANG&FORMAT=JSON","constellation":"guowang","records":[{"OBJECT_NAME":"HULIANWANG DIGUI-92","OBJECT_ID":"2025-231F","EPOCH":"2026-07-19T23:38:31.986816","CLASSIFICATION_TYPE":"U","MEAN_MOTION":13.29329114,"ECCENTRICITY":0.00005031,"INCLINATION":50.0063,"RA_OF_ASC_NODE":58.024,"ARG_OF_PERICENTER":358.8249,"MEAN_ANOMALY":1.2622,"EPHEMERIS_TYPE":0,"NORAD_CAT_ID":66000,"ELEMENT_SET_NO":999,"REV_AT_EPOCH":3725,"BSTAR":0.00002401509,"MEAN_MOTION_DOT":-0.00000113,"MEAN_MOTION_DDOT":0},{"OBJECT_NAME":"HULIANWANG DIGUI-93","OBJECT_ID":"2025-231G","EPOCH":"2026-07-19T19:37:54.903648","CLASSIFICATION_TYPE":"U","MEAN_MOTION":13.29328121,"ECCENTRICITY":0.00005093,"INCLINATION":50.0029,"RA_OF_ASC_NODE":58.41,"ARG_OF_PERICENTER":352.3162,"MEAN_ANOMALY":7.7702,"EPHEMERIS_TYPE":0,"NORAD_CAT_ID":66001,"ELEMENT_SET_NO":999,"REV_AT_EPOCH":3723,"BSTAR":0.000030210126,"MEAN_MOTION_DOT":-0.0000011,"MEAN_MOTION_DDOT":0},{"OBJECT_NAME":"HULIANWANG DIGUI-94","OBJECT_ID":"2025-231H","EPOCH":"2026-07-19T23:26:41.693280","CLASSIFICATION_TYPE":"U","MEAN_MOTION":13.29326105,"ECCENTRICITY":0.00005321,"INCLINATION":50.0066,"RA_OF_ASC_NODE":57.9991,"ARG_OF_PERICENTER":355.7814,"MEAN_ANOMALY":4.3054,"EPHEMERIS_TYPE":0,"NORAD_CAT_ID":66002,"ELEMENT_SET_NO":999,"REV_AT_EPOCH":3725,"BSTAR":0.000032704523,"MEAN_MOTION_DOT":-0.00000109,"MEAN_MOTION_DDOT":0},{"OBJECT_NAME":"HULIANWANG DIGUI-95","OBJECT_ID":"2025-231J","EPOCH":"2026-07-19T21:14:11.379552","CLASSIFICATION_TYPE":"U","MEAN_MOTION":13.29332615,"ECCENTRICITY":0.00004818,"INCLINATION":50.0041,"RA_OF_ASC_NODE":58.1231,"ARG_OF_PERICENTER":359.5866,"MEAN_ANOMALY":0.5006,"EPHEMERIS_TYPE":0,"NORAD_CAT_ID":66003,"ELEMENT_SET_NO":999,"REV_AT_EPOCH":3724,"BSTAR":0.00004164167,"MEAN_MOTION_DOT":-0.00000105,"MEAN_MOTION_DDOT":0},{"OBJECT_NAME":"HULIANWANG DIGUI-96","OBJECT_ID":"2025-258A","EPOCH":"2026-07-20T06:49:38.399808","CLASSIFICATION_TYPE":"U","MEAN_MOTION":13.29327479,"ECCENTRICITY":0.0000824,"INCLINATION":50.0023,"RA_OF_ASC_NODE":176.9333,"ARG_OF_PERICENTER":268.3661,"MEAN_ANOMALY":91.7117,"EPHEMERIS_TYPE":0,"NORAD_CAT_ID":66412,"ELEMENT_SET_NO":999,"REV_AT_EPOCH":3413,"BSTAR":0.000069033263,"MEAN_MOTION_DOT":-9.2e-7,"MEAN_MOTION_DDOT":0},{"OBJECT_NAME":"HULIANWANG DIGUI-97","OBJECT_ID":"2025-258B","EPOCH":"2026-07-20T02:12:55.088928","CLASSIFICATION_TYPE":"U","MEAN_MOTION":13.29326955,"ECCENTRICITY":0.00009731,"INCLINATION":49.9987,"RA_OF_ASC_NODE":177.8459,"ARG_OF_PERICENTER":266.4869,"MEAN_ANOMALY":93.5891,"EPHEMERIS_TYPE":0,"NORAD_CAT_ID":66413,"ELEMENT_SET_NO":999,"REV_AT_EPOCH":3410,"BSTAR":0.000046752325,"MEAN_MOTION_DOT":-0.00000102,"MEAN_MOTION_DDOT":0},{"OBJECT_NAME":"HULIANWANG DIGUI-98","OBJECT_ID":"2025-258C","EPOCH":"2026-07-19T15:11:33.975168","CLASSIFICATION_TYPE":"U","MEAN_MOTION":13.29323404,"ECCENTRICITY":0.00010562,"INCLINATION":50.0027,"RA_OF_ASC_NODE":179.501,"ARG_OF_PERICENTER":260.8326,"MEAN_ANOMALY":99.2427,"EPHEMERIS_TYPE":0,"NORAD_CAT_ID":66414,"ELEMENT_SET_NO":999,"REV_AT_EPOCH":3404,"BSTAR":0.000036172227,"MEAN_MOTION_DOT":-0.00000107,"MEAN_MOTION_DDOT":0},{"OBJECT_NAME":"HULIANWANG DIGUI-99","OBJECT_ID":"2025-258D","EPOCH":"2026-07-20T04:49:23.947104","CLASSIFICATION_TYPE":"U","MEAN_MOTION":13.29326736,"ECCENTRICITY":0.00009445,"INCLINATION":50.0024,"RA_OF_ASC_NODE":177.162,"ARG_OF_PERICENTER":270.7576,"MEAN_ANOMALY":89.3188,"EPHEMERIS_TYPE":0,"NORAD_CAT_ID":66415,"ELEMENT_SET_NO":999,"REV_AT_EPOCH":3411,"BSTAR":0.000056302232,"MEAN_MOTION_DOT":-9.8e-7,"MEAN_MOTION_DDOT":0},{"OBJECT_NAME":"HULIANWANG DIGUI-100","OBJECT_ID":"2025-258E","EPOCH":"2026-07-20T07:13:51.084480","CLASSIFICATION_TYPE":"U","MEAN_MOTION":13.29323491,"ECCENTRICITY":0.00009929,"INCLINATION":50.0026,"RA_OF_ASC_NODE":177.035,"ARG_OF_PERICENTER":275.0066,"MEAN_ANOMALY":85.0693,"EPHEMERIS_TYPE":0,"NORAD_CAT_ID":66416,"ELEMENT_SET_NO":999,"REV_AT_EPOCH":3414,"BSTAR":0.000066881888,"MEAN_MOTION_DOT":-9.3e-7,"MEAN_MOTION_DDOT":0},{"OBJECT_NAME":"HULIANWANG DIGUI-101","OBJECT_ID":"2025-258F","EPOCH":"2026-07-20T07:01:32.266848","CLASSIFICATION_TYPE":"U","MEAN_MOTION":13.29327425,"ECCENTRICITY":0.00008176,"INCLINATION":49.9976,"RA_OF_ASC_NODE":176.881,"ARG_OF_PERICENTER":271.1422,"MEAN_ANOMALY":88.9357,"EPHEMERIS_TYPE":0,"NORAD_CAT_ID":66417,"ELEMENT_SET_NO":999,"REV_AT_EPOCH":3414,"BSTAR":0.000082271801,"MEAN_MOTION_DOT":-8.6e-7,"MEAN_MOTION_DDOT":0},{"OBJECT_NAME":"HULIANWANG DIGUI-102","OBJECT_ID":"2025-258G","EPOCH":"2026-07-19T23:12:38.112192","CLASSIFICATION_TYPE":"U","MEAN_MOTION":13.29323384,"ECCENTRICITY":0.00008487,"INCLINATION":49.9992,"RA_OF_ASC_NODE":177.855,"ARG_OF_PERICENTER":265.9863,"MEAN_ANOMALY":94.0912,"EPHEMERIS_TYPE":0,"NORAD_CAT_ID":66418,"ELEMENT_SET_NO":999,"REV_AT_EPOCH":3409,"BSTAR":0.000041965683,"MEAN_MOTION_DOT":-0.00000105,"MEAN_MOTION_DDOT":0},{"OBJECT_NAME":"HULIANWANG DIGUI-103","OBJECT_ID":"2025-258H","EPOCH":"2026-07-20T02:36:55.414080","CLASSIFICATION_TYPE":"U","MEAN_MOTION":13.2932656,"ECCENTRICITY":0.00009625,"INCLINATION":49.9987,"RA_OF_ASC_NODE":177.2568,"ARG_OF_PERICENTER":275.8317,"MEAN_ANOMALY":84.2446,"EPHEMERIS_TYPE":0,"NORAD_CAT_ID":66419,"ELEMENT_SET_NO":999,"REV_AT_EPOCH":3411,"BSTAR":0.000048118838,"MEAN_MOTION_DOT":-0.00000102,"MEAN_MOTION_DDOT":0},{"OBJECT_NAME":"HULIANWANG DIGUI-104","OBJECT_ID":"2025-258J","EPOCH":"2026-07-20T06:01:28.342272","CLASSIFICATION_TYPE":"U","MEAN_MOTION":13.29326566,"ECCENTRICITY":0.00008874,"INCLINATION":50.0002,"RA_OF_ASC_NODE":176.7142,"ARG_OF_PERICENTER":266.4984,"MEAN_ANOMALY":93.5787,"EPHEMERIS_TYPE":0,"NORAD_CAT_ID":66420,"ELEMENT_SET_NO":999,"REV_AT_EPOCH":3412,"BSTAR":0.000050165895,"MEAN_MOTION_DOT":-0.00000101,"MEAN_MOTION_DDOT":0},{"OBJECT_NAME":"HULIANWANG DIGUI-105","OBJECT_ID":"2025-285A","EPOCH":"2026-07-20T06:07:22.044000","CLASSIFICATION_TYPE":"U","MEAN_MOTION":13.29322784,"ECCENTRICITY":0.00009324,"INCLINATION":50.0062,"RA_OF_ASC_NODE":27.6243,"ARG_OF_PERICENTER":52.0857,"MEAN_ANOMALY":308.0099,"EPHEMERIS_TYPE":0,"NORAD_CAT_ID":66915,"ELEMENT_SET_NO":999,"REV_AT_EPOCH":3045,"BSTAR":0.000018182015,"MEAN_MOTION_DOT":-0.00000116,"MEAN_MOTION_DDOT":0},{"OBJECT_NAME":"HULIANWANG DIGUI-106","OBJECT_ID":"2025-285B","EPOCH":"2026-07-19T19:05:43.182816","CLASSIFICATION_TYPE":"U","MEAN_MOTION":13.2932326,"ECCENTRICITY":0.00009685,"INCLINATION":50.0072,"RA_OF_ASC_NODE":29.2194,"ARG_OF_PERICENTER":48.6099,"MEAN_ANOMALY":311.4856,"EPHEMERIS_TYPE":0,"NORAD_CAT_ID":66916,"ELEMENT_SET_NO":999,"REV_AT_EPOCH":3039,"BSTAR":0.000038305031,"MEAN_MOTION_DOT":-0.00000106,"MEAN_MOTION_DDOT":0},{"OBJECT_NAME":"HULIANWANG DIGUI-107","OBJECT_ID":"2025-285C","EPOCH":"2026-07-20T05:43:01.708608","CLASSIFICATION_TYPE":"U","MEAN_MOTION":13.29326211,"ECCENTRICITY":0.00009336,"INCLINATION":50.0041,"RA_OF_ASC_NODE":27.4942,"ARG_OF_PERICENTER":55.3684,"MEAN_ANOMALY":304.7277,"EPHEMERIS_TYPE":0,"NORAD_CAT_ID":66917,"ELEMENT_SET_NO":999,"REV_AT_EPOCH":3045,"BSTAR":0.000027953618,"MEAN_MOTION_DOT":-0.00000111,"MEAN_MOTION_DDOT":0}]}
