HULIANWANG DIGUI-92     
1 66000U 25231F   26200.98509244 -.00000113  00000+0  24015-4 0  9997
2 66000  50.0063  58.0240 0000503 358.8249   1.2622 13.29329114 37259
HULIANWANG DIGUI-93     
1 66001U 25231G   26200.81799657 -.00000110  00000+0  30210-4 0  9990
2 66001  50.0029  58.4100 0000509 352.3162   7.7702 13.29328121 37235
HULIANWANG DIGUI-94     
1 66002U 25231H   26200.97687145 -.00000109  00000+0  32705-4 0  9995
2 66002  50.0066  57.9991 0000532 355.7814   4.3054 13.29326105 37251
HULIANWANG DIGUI-95     
1 66003U 25231J   26200.88485393 -.00000105  00000+0  41642-4 0  9993
2 66003  50.0041  58.1231 0000481 359.5866   0.5006 13.29332615 37244
HULIANWANG DIGUI-96     
1 66412U 25258A   26201.28447222 -.00000092  00000+0  69033-4 0  9999
2 66412  50.0023 176.9333 0000824 268.3661  91.7117 13.29327479 34133
HULIANWANG DIGUI-97     
1 66413U 25258B   26201.09230427 -.00000102  00000+0  46752-4 0  9991
2 66413  49.9987 177.8459 0000973 266.4869  93.5891 13.29326955 34107
HULIANWANG DIGUI-98     
1 66414U 25258C   26200.63303212 -.00000107  00000+0  36172-4 0  9994
2 66414  50.0027 179.5010 0001056 260.8326  99.2427 13.29323404 34044
HULIANWANG DIGUI-99     
1 66415U 25258D   26201.20097161 -.00000098  00000+0  56302-4 0  9998
2 66415  50.0024 177.1620 0000944 270.7576  89.3188 13.29326736 34118
HULIANWANG DIGUI-100    
1 66416U 25258E   26201.30128570 -.00000093  00000+0  66882-4 0  9998
2 66416  50.0026 177.0350 0000992 275.0066  85.0693 13.29323491 34147
HULIANWANG DIGUI-101    
1 66417U 25258F   26201.29273457 -.00000086  00000+0  82272-4 0  9995
2 66417  49.9976 176.8810 0000817 271.1422  88.9357 13.29327425 34146
HULIANWANG DIGUI-102    
1 66418U 25258G   26200.96710778 -.00000105  00000+0  41966-4 0  9998
2 66418  49.9992 177.8550 0000848 265.9863  94.0912 13.29323384 34090
HULIANWANG DIGUI-103    
1 66419U 25258H   26201.10897470 -.00000102  00000+0  48119-4 0  9995
2 66419  49.9987 177.2568 0000962 275.8317  84.2446 13.29326560 34114
HULIANWANG DIGUI-104    
1 66420U 25258J   26201.25102248 -.00000101  00000+0  50166-4 0  9999
2 66420  50.0002 176.7142 0000887 266.4984  93.5787 13.29326566 34129
HULIANWANG DIGUI-105    
1 66915U 25285A   26201.25511625 -.00000116  00000+0  18182-4 0  9999
2 66915  50.0062  27.6243 0000932  52.0857 308.0099 13.29322784 30459
HULIANWANG DIGUI-106    
1 66916U 25285B   26200.79563869 -.00000106  00000+0  38305-4 0  9993
2 66916  50.0072  29.2194 0000968  48.6099 311.4856 13.29323260 30394
HULIANWANG DIGUI-107    
1 66917U 25285C   26201.23821422 -.00000111  00000+0  27954-4 0  9990
2 66917  50.0041  27.4942 0000933  55.3684 304.7277 13.29326211 30457
